{"fetched_at":"2026-03-29T16:36:15Z","count":15609,"tles":[{"name":"YAOGAN-30 08A","line1":"1 46807U 20076A   26087.84491645  .00003649  00000+0  27291-3 0  9999","line2":"2 46807  34.9931 220.7790 0000660 290.1599  69.9038 15.02281046296023","category":"Other"}]}